DIWATA-1                
1 41463U 98067HT  17346.23235046  .00007711  00000-0  78272-4 0  9990
2 41463  51.6401 204.4670 0002377 120.1625 346.4093 15.66315009 92664
